SIIN90 VOMM 051200 
AAXX 05124
43279 32597 31410 10390 20264 30018 40035 83400 333 59108=
TOT: 00:05  05-06-2026

SMIN90 VOMM 051100 
AAXX 05114
43377 32596 42704 10286 20272 30044 40085 82531 333 58014=
TOT: 00:10  05-06-2026

SIIN90 VOMM 051000
AAXX 05104
41288 32595 40307 10295 20278 30052 40095 80410 333 59115=
TOT: 00:15  05-06-2026
